full_name,e,q,i,om,w,ad,tp_cal,per_y,class,data_arc,condition_code,n_obs_used,two_body,A1,A2,A3,DT
"    1P/Halley",0.967142908462304,0.585978111516909,162.262690579161,58.42008097656843,111.3324851045177,35.08231047359043,19860205.8953171,75.3158906863411,HTC,57852,,7428,,2.696463929511566E-10,1.554613388970244E-10,,
"    2P/Encke",.8483360282890077,.3359571264858844,11.78199781557852,334.5678725687213,186.5446458683143,4.094325460680924,20131121.7773493,3.296934748586,ETc,3787,0,2584,,-2.050005447641087E-11,-1.85864577773765E-12,3.869899660518827E-9,
"    3D/Biela",0.751299,0.879073,13.2164,250.669,221.6588,6.190243166802708,18321126.6152000,6.64552531740703,JFc,,,26,,0.39E-8,-0.0254E-8,,
"    4P/Faye",.5696175496849397,1.651876343070432,9.070294510274881,199.143982411512,205.1258177176394,6.024441972702809,20140529.8687186,7.51956420594534,JFc,6226,0,4460,,3.827616356938363E-9,6.623304467699322E-10,-1.612481419404149E-9,-112.8808026867707